ASTRA 1M                
1 33436U 08057A   26175.17425331  .00000128  00000+0  00000+0 0  9995
2 33436   0.3150  82.6293 0005181  27.9833 243.8569  1.00275550 45806
EUTELSAT HOTBIRD 13C    
1 33459U 08065A   26175.16047324 -.00000277  00000+0  00000+0 0  9996
2 33459   2.9687  79.1168 0003355  10.2191 190.4197  1.00273003 47413
EXPRESS-AM44            
1 33595U 09007A   26175.31087970 -.00000084  00000+0  00000+0 0  9998
2 33595   3.4828  78.3148 0004134   6.0289 289.0170  1.00271409 52356
NSS-9                   
1 33749U 09008A   26175.20667497  .00000078  00000+0  00000+0 0  9998
2 33749   1.2804  82.6042 0002241 354.2597  92.9661  1.00273280 63598
TELSTAR 11N             
1 34111U 09009A   26175.16298659 -.00000243  00000+0  00000+0 0  9993
2 34111   0.0400  81.2983 0002575  10.5478 201.5952  1.00272729 46319
WGS F2 (USA 204)        
1 34713U 09017A   26175.18179334  .00000075  00000+0  00000+0 0  9992
2 34713   0.0168  18.0223 0000284  88.6908 288.5748  1.00271079 45686
SES-7 (PROTOSTAR 2)     
1 34941U 09027A   26175.03864247 -.00000338  00000+0  00000+0 0  9997
2 34941   0.0305  61.1559 0000725 112.3348 220.8518  1.00270248 62697
MEASAT-3A               
1 35362U 09032A   26175.20216828 -.00000103  00000+0  00000+0 0  9996
2 35362   0.0269  26.0762 0003165  61.0151  58.0564  1.00271164  8109
GOES 14                 
1 35491U 09033A   26175.17475344 -.00000309  00000+0  00000+0 0  9994
2 35491   1.7086  82.9684 0002151  15.8840  14.1532  1.00109179  6660
FM-5                    
1 35493U 09034A   26175.22330536 -.00000193  00000+0  00000+0 0  9997
2 35493   0.0240 288.0310 0000794  49.4040 289.1712  1.00270528 46718
TERRESTAR-1             
1 35496U 09035A   26175.19350374 -.00000053  00000+0  00000+0 0  9994
2 35496   5.1804  48.7950 0002617  40.3346 141.8619  1.00270173 62207
ASIASAT 5               
1 35696U 09042A   26175.33291249  .00000000  00000+0  00000+0 0  9996
2 35696   0.0426  60.6988 0001484  39.1454  33.0440  1.00263955 61780
JCSAT-12 (JCSAT-RA)     
1 35755U 09044A   26175.19003134 -.00000320  00000+0  00000+0 0  9998
2 35755   0.0175 309.6672 0000214 335.1066 188.0207  1.00271993 61683
OPTUS D3                
1 35756U 09044B   26175.20138828 -.00000138  00000+0  00000+0 0  9997
2 35756   0.8771 268.7051 0003187 187.1469  45.1352  1.00270426 61633
NIMIQ 5                 
1 35873U 09050A   26175.18837104 -.00000250  00000+0  00000+0 0  9999
2 35873   0.0426 270.5374 0002903 171.3083 185.6161  1.00271767 61416
AMAZONAS 2              
1 35942U 09054A   26175.19466331 -.00000253  00000+0  00000+0 0  9994
2 35942   1.8342  82.9697 0003438  11.7068 175.7643  1.00271709 61259
COMSATBW-1              
1 35943U 09054B   26175.11163953  .00000032  00000+0  00000+0 0  9995
2 35943   0.0551 145.2590 0003046 306.9316 283.2831  1.00270694 61377
NSS-12                  
1 36032U 09058A   26175.18170668  .00000079  00000+0  00000+0 0  9998
2 36032   0.0807 276.0856 0004961 145.4004 333.2669  1.00271791 60986
THOR 6                  
1 36033U 09058B   26175.17026662 -.00000002  00000+0  00000+0 0  9999
2 36033   0.0254 253.8236 0002006 206.6245 232.3411  1.00273320 61078
INTELSAT 14 (IS-14)     
1 36097U 09064A   26175.16151325 -.00000266  00000+0  00000+0 0  9992
2 36097   0.0179   0.6577 0002605  93.6919 191.1112  1.00270664 60670
EUTELSAT 36B            
1 36101U 09065A   26175.22891794  .00000119  00000+0  00000+0 0  9993
2 36101   0.5093  81.2142 0005741   9.9536 314.1030  1.00271637 60776
INTELSAT 15 (IS-15)     
1 36106U 09067A   26175.18716671 -.00000178  00000+0  00000+0 0  9991
2 36106   0.0170  16.1249 0002429  79.7076 329.0415  1.00271884 41293
WGS F3 (USA 211)        
1 36108U 09068A   26175.22572766  .00000071  00000+0  00000+0 0  9995
2 36108   0.3184  85.7614 0000673 353.6686 144.2130  1.00274549 46669
DIRECTV 12              
1 36131U 09075A   26175.19747616 -.00000096  00000+0  00000+0 0  9991
2 36131   0.0396 154.7925 0000400 358.0182  87.9069  1.00269396 46621
BEIDOU-2 G1             
1 36287U 10001A   26174.92560028 -.00000276  00000+0  00000+0 0  9994
2 36287   4.3096  60.3965 0002397 305.2773  20.0789  1.00274266 60232
SDO                     
1 36395U 10005A   26174.30590450 -.00000088  00000+0  00000+0 0  9993
2 36395  34.6648  86.2482 0001733  49.0122 144.1818  1.00270594 60125
INTELSAT 16 (IS-16)     
1 36397U 10006A   26175.22663060 -.00000237  00000+0  00000+0 0  9992
2 36397   0.0103   7.1305 0002314 101.2075 169.4261  1.00271352 59729
EWS-G2 (GOES 15)        
1 36411U 10008A   26175.11172619  .00000027  00000+0  00000+0 0  9990
2 36411   1.2971  82.7580 0005175  42.3240 251.0022  1.00267670 59702
ECHOSTAR 14             
1 36499U 10010A   26175.19153780  .00000007  00000+0  00000+0 0  9993
2 36499   0.0326 273.9476 0002553 183.7832 124.6673  1.00274523 46620
SES-1                   
1 36516U 10016A   26175.22167929 -.00000107  00000+0  00000+0 0  9995
2 36516   0.0175 320.5913 0002863 128.7877 161.7985  1.00272015 59108
ASTRA 3B                
1 36581U 10021A   26175.17511998  .00000144  00000+0  00000+0 0  9996
2 36581   1.4872  83.4678 0004095  12.4131 262.9996  1.00274129 58937
COMSATBW-2              
1 36582U 10021B   26175.17303998  .00000097  00000+0  00000+0 0  9993
2 36582   0.0450 184.7922 0002858 286.5114 236.5817  1.00277894 59024
