OBJECT_NAME,OBJECT_ID,EPOCH,MEAN_MOTION,ECCENTRICITY,INCLINATION,RA_OF_ASC_NODE,ARG_OF_PERICENTER,MEAN_ANOMALY,EPHEMERIS_TYPE,CLASSIFICATION_TYPE,NORAD_CAT_ID,ELEMENT_SET_NO,REV_AT_EPOCH,BSTAR,MEAN_MOTION_DOT,MEAN_MOTION_DDOT
ASTRA 1M,2008-057A,2026-06-24T04:10:55.485984,1.00275550,.00051814,0.3150,82.6293,27.9833,243.8569,0,U,33436,999,4580,0,.128E-5,0
EUTELSAT HOTBIRD 13C,2008-065A,2026-06-24T03:51:04.887936,1.00273003,.00033557,2.9687,79.1168,10.2191,190.4197,0,U,33459,999,4741,0,-.277E-5,0
EXPRESS-AM44,2009-007A,2026-06-24T07:27:40.006080,1.00271409,.00041344,3.4828,78.3148,6.0289,289.0170,0,U,33595,999,5235,0,-.84E-6,0
NSS-9,2009-008A,2026-06-24T04:57:36.717408,1.00273280,.00022413,1.2804,82.6042,354.2597,92.9661,0,U,33749,999,6359,0,.78E-6,0
TELSTAR 11N,2009-009A,2026-06-24T03:54:42.041376,1.00272729,.00025756,0.0400,81.2983,10.5478,201.5952,0,U,34111,999,4631,0,-.243E-5,0
WGS F2 (USA 204),2009-017A,2026-06-24T04:21:46.944576,1.00271079,.0000284,0.0168,18.0223,88.6908,288.5748,0,U,34713,999,4568,0,.75E-6,0
SES-7 (PROTOSTAR 2),2009-027A,2026-06-24T00:55:38.709408,1.00270248,.0000725,0.0305,61.1559,112.3348,220.8518,0,U,34941,999,6269,0,-.338E-5,0
MEASAT-3A,2009-032A,2026-06-24T04:51:07.339392,1.00271164,.00031652,0.0269,26.0762,61.0151,58.0564,0,U,35362,999,810,0,-.103E-5,0
GOES 14,2009-033A,2026-06-24T04:11:38.697216,1.00109179,.00021517,1.7086,82.9684,15.8840,14.1532,0,U,35491,999,666,0,-.309E-5,0
FM-5,2009-034A,2026-06-24T05:21:33.583104,1.00270528,.00007941,0.0240,288.0310,49.4040,289.1712,0,U,35493,999,4671,0,-.193E-5,0
TERRESTAR-1,2009-035A,2026-06-24T04:38:38.723136,1.00270173,.00026179,5.1804,48.7950,40.3346,141.8619,0,U,35496,999,6220,0,-.53E-6,0
ASIASAT 5,2009-042A,2026-06-24T07:59:23.639136,1.00263955,.00014845,0.0426,60.6988,39.1454,33.0440,0,U,35696,999,6178,0,0,0
JCSAT-12 (JCSAT-RA),2009-044A,2026-06-24T04:33:38.707776,1.00271993,.00002143,0.0175,309.6672,335.1066,188.0207,0,U,35755,999,6168,0,-.32E-5,0
OPTUS D3,2009-044B,2026-06-24T04:49:59.947392,1.00270426,.00031872,0.8771,268.7051,187.1469,45.1352,0,U,35756,999,6163,0,-.138E-5,0
NIMIQ 5,2009-050A,2026-06-24T04:31:15.257856,1.00271767,.00029031,0.0426,270.5374,171.3083,185.6161,0,U,35873,999,6141,0,-.25E-5,0
AMAZONAS 2,2009-054A,2026-06-24T04:40:18.909984,1.00271709,.00034387,1.8342,82.9697,11.7068,175.7643,0,U,35942,999,6125,0,-.253E-5,0
COMSATBW-1,2009-054B,2026-06-24T02:40:45.655392,1.00270694,.00030467,0.0551,145.2590,306.9316,283.2831,0,U,35943,999,6137,0,.32E-6,0
NSS-12,2009-058A,2026-06-24T04:21:39.457152,1.00271791,.00049613,0.0807,276.0856,145.4004,333.2669,0,U,36032,999,6098,0,.79E-6,0
THOR 6,2009-058B,2026-06-24T04:05:11.035968,1.00273320,.00020067,0.0254,253.8236,206.6245,232.3411,0,U,36033,999,6107,0,-.2E-7,0
INTELSAT 14 (IS-14),2009-064A,2026-06-24T03:52:34.744800,1.00270664,.00026059,0.0179,0.6577,93.6919,191.1112,0,U,36097,999,6067,0,-.266E-5,0
EUTELSAT 36B,2009-065A,2026-06-24T05:29:38.510016,1.00271637,.00057416,0.5093,81.2142,9.9536,314.1030,0,U,36101,999,6077,0,.119E-5,0
INTELSAT 15 (IS-15),2009-067A,2026-06-24T04:29:31.203744,1.00271884,.00024296,0.0170,16.1249,79.7076,329.0415,0,U,36106,999,4129,0,-.178E-5,0
WGS F3 (USA 211),2009-068A,2026-06-24T05:25:02.869824,1.00274549,.00006735,0.3184,85.7614,353.6686,144.2130,0,U,36108,999,4666,0,.71E-6,0
DIRECTV 12,2009-075A,2026-06-24T04:44:21.940224,1.00269396,.00004009,0.0396,154.7925,358.0182,87.9069,0,U,36131,999,4662,0,-.96E-6,0
BEIDOU-2 G1,2010-001A,2026-06-23T22:12:51.864192,1.00274266,.00023979,4.3096,60.3965,305.2773,20.0789,0,U,36287,999,6023,0,-.276E-5,0
SDO,2010-005A,2026-06-23T07:20:30.148800,1.00270594,.00017333,34.6648,86.2482,49.0122,144.1818,0,U,36395,999,6012,0,-.88E-6,0
INTELSAT 16 (IS-16),2010-006A,2026-06-24T05:26:20.883840,1.00271352,.00023143,0.0103,7.1305,101.2075,169.4261,0,U,36397,999,5972,0,-.237E-5,0
EWS-G2 (GOES 15),2010-008A,2026-06-24T02:40:53.142816,1.00267670,.0005175,1.2971,82.7580,42.3240,251.0022,0,U,36411,999,5970,0,.27E-6,0
ECHOSTAR 14,2010-010A,2026-06-24T04:35:48.865920,1.00274523,.00025537,0.0326,273.9476,183.7832,124.6673,0,U,36499,999,4662,0,.7E-7,0
SES-1,2010-016A,2026-06-24T05:19:13.090656,1.00272015,.0002863,0.0175,320.5913,128.7877,161.7985,0,U,36516,999,5910,0,-.107E-5,0
ASTRA 3B,2010-021A,2026-06-24T04:12:10.366272,1.00274129,.00040954,1.4872,83.4678,12.4131,262.9996,0,U,36581,999,5893,0,.144E-5,0
COMSATBW-2,2010-021B,2026-06-24T04:09:10.654272,1.00277894,.00028581,0.0450,184.7922,286.5114,236.5817,0,U,36582,999,5902,0,.97E-6,0
